EYESAT-1 (AO-27)        
1 22825U 93061C   17344.86545032  .00000018  00000-0  24804-4 0  9991
2 22825  98.8376 312.8359 0008507 168.9811 191.1559 14.30016025262381
CUTE-1 (CO-55)          
1 27844U 03031E   17344.96091859  .00000055  00000-0  44611-4 0  9998
2 27844  98.6888 351.3889 0009574 190.3300 169.7683 14.22081089749401
CUBESAT XI-IV (CO-57)   
1 27848U 03031J   17344.93851037  .00000043  00000-0  39348-4 0  9999
2 27848  98.6978 351.6975 0009289 200.4129 159.6679 14.21689822749286
CUBESAT XI 5            
1 28895U 05043F   17344.91837575  .00000163  00000-0  40206-4 0  9994
2 28895  97.8834 139.3004 0015732 307.3003  52.6765 14.63483848646104
CUTE-1.7+APD II (CO-65) 
1 32785U 08021C   17344.83623718  .00000261  00000-0  34002-4 0  9995
2 32785  97.5557   0.9424 0011857 307.1199  52.8934 14.88023822521092
COMPASS-1               
1 32787U 08021E   17344.85053210  .00000323  00000-0  36424-4 0  9992
2 32787  97.5438  10.8834 0011055 268.0789  91.9165 14.92845367521852
AAUSAT-II               
1 32788U 08021F   17344.78320776  .00000580  00000-0  59275-4 0  9993
2 32788  97.5414  13.9611 0010429 258.1447 101.8605 14.94145493521944
DELFI-C3 (DO-64)        
1 32789U 08021G   17344.72488351  .00001065  00000-0  78040-4 0  9992
2 32789  97.5381  39.0984 0011834 215.1255 144.9193 15.05566859523321
CANX-2                  
1 32790U 08021H   17344.84913486  .00000216  00000-0  29365-4 0  9992
2 32790  97.5548 359.2208 0012578 308.9313  51.0782 14.87736590521102
SEEDS II (CO-66)        
1 32791U 08021J   17344.62526691  .00000388  00000-0  45263-4 0  9992
2 32791  97.5494   5.6288 0012001 288.1772  71.8140 14.90413656521345
SWISSCUBE               
1 35932U 09051B   17344.95030144  .00000146  00000-0  43924-4 0  9999
2 35932  98.5191 126.8939 0008667  72.0401 288.1740 14.56097147436003
BEESAT                  
1 35933U 09051C   17344.92264233  .00000122  00000-0  38490-4 0  9991
2 35933  98.5230 128.2912 0006968  84.1076 276.0915 14.56207361436066
ITUPSAT 1               
1 35935U 09051E   17344.94027121  .00000115  00000-0  37452-4 0  9997
2 35935  98.5341 128.5638 0009250  78.3960 281.8274 14.55392371435913
TISAT 1                 
1 36799U 10035E   17344.90427762  .00000516  00000-0  58643-4 0  9991
2 36799  98.0823 111.4703 0013683 105.9269 254.3457 14.90632134401903
M-CUBED & EXP-1 PRIME   
1 37855U 11061F   17344.75954294  .00001720  00000-0  96419-4 0  9994
2 37855 101.7171 305.9217 0178020 279.7014  78.4130 15.03884327332858
HORYU 2                 
1 38340U 12025D   17344.95931643  .00000216  00000-0  39825-4 0  9997
2 38340  98.3759 355.1255 0012850  90.1638 270.1043 14.75462551288948
STRAND-1                
1 39090U 13009E   17344.50178723  .00000031  00000-0  26359-4 0  9999
2 39090  98.5356 188.1436 0009952 132.7516 227.4508 14.35000601250746
BRITE-AUSTRIA           
1 39091U 13009F   17344.50899638  .00000014  00000-0  20139-4 0  9996
2 39091  98.5322 187.4828 0011180 140.3999 219.8005 14.35053033250770
UNIBRITE                
1 39092U 13009G   17344.59350459 -.00000003  00000-0  14366-4 0  9993
2 39092  98.5334 187.2417 0010153 133.4768 226.7263 14.34927122250773
AIST-2                  
1 39133U 13015D   17344.93410832  .00000148  00000-0  23106-4 0  9997
2 39133  64.8740  86.9241 0036116 252.3515 107.3659 15.04445305254496
SOMP                    
1 39134U 13015E   17344.89239538  .00001482  00000-0  80302-4 0  9998
2 39134  64.8645  15.7520 0030269 237.1473 122.6739 15.18598677255922
BEESAT-3                
1 39135U 13015F   17344.61183819  .00001037  00000-0  63007-4 0  9998
2 39135  64.8702  27.6202 0032429 257.2409 102.5092 15.16217758255664
BEESAT-2                
1 39136U 13015G   17344.51654829  .00001019  00000-0  62972-4 0  9992
2 39136  64.8706  30.2132 0032295 258.9342 100.8151 15.15704198255605
NEE-01 PEGASUS          
1 39151U 13018B   17344.79155240  .00000184  00000-0  31481-4 0  9998
2 39151  97.9811  75.1839 0016855 194.2470 165.8268 14.79823327249659
CUBEBUG-1 (CAPITAN BETO)
1 39153U 13018D   17344.86084163  .00000218  00000-0  35525-4 0  9994
2 39153  97.9840  76.2135 0016823 191.9450 168.1365 14.80303062249645
ESTCUBE 1               
1 39161U 13021C   17344.73889006  .00000249  00000-0  47602-4 0  9995
2 39161  98.0206  68.3800 0008417 305.9164  54.1258 14.71993741246722
POPACS 1                
1 39268U 13055D   17344.88253438  .00003121  00000-0  87147-4 0  9990
2 39268  81.0017 183.5670 0644667  60.7840 305.6240 14.32752182217471
POPACS 2                
1 39269U 13055E   17344.93064694  .00002208  00000-0  62866-4 0  9997
2 39269  81.0152 201.6845 0696512 107.8947 259.9406 14.21199683215174
POPACS 3                
1 39270U 13055F   17344.93129529  .00001680  00000-0  51439-4 0  9995
2 39270  81.0167 211.7085 0722396 137.9170 227.9879 14.14059650195045
ZACUBE-1 (TSHEPISOSAT)  
1 39417U 13066B   17344.93399005  .00000222  00000-0  34471-4 0  9996
2 39417  97.6093  18.4109 0060342  52.6068 308.0617 14.80837587218934
WNISAT-1                
1 39423U 13066H   17344.85416543  .00000040  00000-0  17938-4 0  9998
2 39423  97.7022 318.7802 0174164 245.8179 112.4732 14.52905841214880
TRITON-1                
1 39427U 13066M   17344.92298703  .00000204  00000-0  40366-4 0  9999
2 39427  97.6363 348.4223 0115092 142.0231 218.9161 14.67577065216777
GOMX 1                  
1 39430U 13066Q   17344.91542210  .00000160  00000-0  38165-4 0  9992
2 39430  97.6779 330.5989 0151079 204.4895 154.9078 14.58987056215519
BRITE-PL                
1 39431U 13066R   17344.88047641  .00000077  00000-0  27303-4 0  9996
2 39431  97.7315 307.1820 0201287 289.0562  68.8928 14.46896387213998
HUMSAT-D                
1 39433U 13066T   17344.75821028  .00000402  00000-0  45147-4 0  9991
2 39433  97.6317  42.4711 0030692 352.6587   7.4179 14.91679975220338
EAGLE 2                 
1 39436U 13066W   17344.88359232  .00039183  00000-0  65965-3 0  9998
2 39436  97.7119 101.0568 0006660 167.2666 192.8754 15.51595522222747
CUBEBUG-2 (LO-74)       
1 39440U 13066AA  17344.63112925  .00000255  00000-0  42355-4 0  9999
2 39440  97.6138   5.9654 0082088  87.9352 273.1256 14.75574875216913
NEE-02 KRYSAOR          
1 39441U 13066AB  17344.60421287  .00000167  00000-0  30763-4 0  9993
2 39441  97.6127   4.3922 0083507  92.1811 268.8964 14.74707700216829
FUNCUBE-1 (AO-73)       
1 39444U 13066AE  17344.82484251  .00000310  00000-0  44738-4 0  9997
2 39444  97.6107  19.5900 0059401  49.1639 311.4703 14.81596382217175
UWE-3                   
1 39446U 13066AG  17344.63825077  .00000247  00000-0  39505-4 0  9998
2 39446  97.6103  11.7131 0071692  71.0381 289.8583 14.78108353216678
BRITE-TORONTO           
1 40020U 14033L   17344.69531438  .00000078  00000-0  21574-4 0  9993
2 40020  97.8088 207.2912 0088696 124.7619 236.1976 14.66449790185961
DUCHIFAT-1              
1 40021U 14033M   17344.71621734  .00000559  00000-0  63590-4 0  9994
2 40021  97.9162 258.0996 0014412  80.1649 280.1195 14.90129723188889
FLOCK 1C-10             
1 40023U 14033P   17344.74933765  .00000401  00000-0  48543-4 0  9996
2 40023  97.9173 256.9786 0014113  84.9409 275.3419 14.89040694188771
NANOSATC-BR1            
1 40024U 14033Q   17344.73279086  .00000371  00000-0  44920-4 0  9996
2 40024  97.9110 256.7121 0013721  81.8085 278.4688 14.89419699188300
QB50P1                  
1 40025U 14033R   17344.74120079  .00000299  00000-0  38060-4 0  9992
2 40025  97.9082 255.4875 0013967  85.0575 275.2236 14.88589566188756
FLOCK 1C-7              
1 40026U 14033S   17344.67888079  .00000720  00000-0  80957-4 0  9997
2 40026  97.9171 257.8687 0012309  80.9541 279.3052 14.89782261188826
FLOCK 1C-1              
1 40027U 14033T   17344.70997947  .00000697  00000-0  79793-4 0  9996
2 40027  97.9184 257.2178 0014016  83.7644 276.5174 14.89100474188781
POPSAT-HIP-1            
1 40028U 14033U   17344.78860366  .00000289  00000-0  37153-4 0  9990
2 40028  97.9118 255.8631 0015423  83.4000 276.9039 14.88449925188749
FLOCK 1C-2              
1 40029U 14033V   17344.73662986  .00001294  00000-0  14286-3 0  9992
2 40029  97.9177 257.0879 0015192  80.5636 279.7316 14.89139378188770
FLOCK 1C-4              
1 40031U 14033X   17344.70397923  .00000538  00000-0  63151-4 0  9994
2 40031  97.9179 257.0020 0015587  79.1432 281.1566 14.88963555188752
QB50P2                  
1 40032U 14033Y   17344.70694291  .00000321  00000-0  40893-4 0  9991
2 40032  97.9046 254.3816 0013331  80.9475 279.3249 14.88140067188696
FLOCK 1C-11             
1 40033U 14033Z   17344.72263875  .00000890  00000-0  97223-4 0  9994
2 40033  97.9209 258.8659 0013676  72.7129 287.5596 14.90377699188882
ANTELSAT                
1 40034U 14033AA  17344.74331845  .00000271  00000-0  47774-4 0  9999
2 40034  97.8348 222.9621 0060318  84.9038 275.9052 14.73823397186390
FLOCK 1C-9              
1 40035U 14033AB  17344.71897515  .00000905  00000-0  10171-3 0  9992
2 40035  97.9223 257.5150 0013034  74.1818 286.0876 14.89174965188784
FLOCK 1C-6              
1 40036U 14033AC  17344.72743755  .00001099  00000-0  12191-3 0  9999
2 40036  97.9223 257.7813 0013161  73.8408 286.4291 14.89282762188796
PERSEUS-M2              
1 40037U 14033AD  17344.71821475  .00000126  00000-0  20600-4 0  9990
2 40037  97.9053 252.4872 0015872  87.4747 272.8285 14.86301639188034
FLOCK 1C-5              
1 40038U 14033AE  17344.73711909  .00000992  00000-0  11057-3 0  9999
2 40038  97.9211 257.5603 0015722  74.5514 285.7435 14.89253435188798
PERSEUS-M1              
1 40039U 14033AF  17344.82998469  .00000091  00000-0  16760-4 0  9995
2 40039  97.9056 252.0697 0015711  83.8023 276.4982 14.85924448188514
FLOCK 1C-8              
1 40040U 14033AG  17344.76522623  .00000331  00000-0  39112-4 0  9998
2 40040  97.9257 260.3083 0014021  60.8660 299.3949 14.91208169188941
